OBJECT_NAME,OBJECT_ID,OBJECT_TYPE,EPOCH,MEAN_MOTION,ECCENTRICITY,INCLINATION,RA_OF_ASC_NODE,ARG_OF_PERICENTER,MEAN_ANOMALY,EPHEMERIS_TYPE,CLASSIFICATION_TYPE,NORAD_CAT_ID,ELEMENT_SET_NO,REV_AT_EPOCH,BSTAR,MEAN_MOTION_DOT,MEAN_MOTION_DDOT,WEATHER,BRIGHTEST,EARTH_RESOURCES,NAVIGATION,SCIENTIFIC,MISCELLANEOUS,COMMUNICATION,active geosynchronous,constellations,active_geosynchronous
STARLINK-2097,2021-005AE,Sattelite,2026-02-22T21:53:07.687392,15.06389599,0.00020234,53.0537,127.9583,81.2992,278.8226,0,U,47377,999,28081,0.00025005294,3.444e-05,0.0,False,False,False,False,False,False,False,False,starlink,
STARLINK-2098,2021-005AF,Sattelite,2026-02-22T06:13:41.086848,15.30188483,0.00014246,53.1605,85.8404,79.9267,280.1894,0,U,47378,999,28135,4.6462216e-05,1.017e-05,0.0,False,False,False,False,False,False,False,False,starlink,
STARLINK-2099,2021-005AG,Sattelite,2026-02-22T14:17:26.878272,15.30199106,0.0001505,53.1615,83.6517,89.3579,270.7594,0,U,47379,999,28141,6.3497e-05,1.522e-05,0.0,False,False,False,False,False,False,False,False,starlink,
STARLINK-2100,2021-005AH,Sattelite,2026-02-22T19:23:12.179040,15.06377953,0.00012656,53.0545,98.4264,97.5179,262.5954,0,U,47380,999,28122,-0.00021678148,-3.507e-05,0.0,False,False,False,False,False,False,False,False,starlink,
STARLINK-2101,2021-005AJ,Sattelite,2026-02-22T19:46:24.924576,15.06397533,0.00015606,53.0552,103.4441,105.2522,254.8639,0,U,47381,999,28115,6.3295255e-05,6.61e-06,0.0,False,False,False,False,False,False,False,False,starlink,
STARLINK-2102,2021-005AK,Sattelite,2026-02-22T22:00:01.999584,15.30175244,0.0001373,53.1602,95.1702,77.1334,279.3526,0,U,47382,999,584,0.0018239285,0.00054012,0.0,False,False,False,False,False,False,False,False,starlink,
STARLINK-2103,2021-005AL,Sattelite,2026-02-22T18:52:29.112384,15.31031132,0.00011708,53.1577,83.6348,101.1663,258.947,0,U,47383,999,28143,2.7061103e-05,4.6e-06,0.0,False,False,False,False,False,False,False,False,starlink,
STARLINK-2104,2021-005AM,Sattelite,2026-02-22T20:26:54.582432,15.06401016,0.00014775,53.0542,98.4692,93.2759,266.8399,0,U,47384,999,28122,5.129986e-05,4.83e-06,0.0,False,False,False,False,False,False,False,False,starlink,
STARLINK-2105,2021-005AN,Sattelite,2026-02-22T20:21:33.507936,15.06399133,0.0001501,53.0546,98.2462,81.8715,278.2444,0,U,47385,999,28122,6.939714e-05,7.52e-06,0.0,False,False,False,False,False,False,False,False,starlink,
STARLINK-2106,2021-005AP,Sattelite,2026-02-22T14:41:52.148832,15.06392075,0.00012647,53.0557,99.3035,93.3263,266.7871,0,U,47386,999,28119,2.6009257e-05,1.06e-06,0.0,False,False,False,False,False,False,False,False,starlink,
STARLINK-2109,2021-005AR,Sattelite,2026-02-22T14:43:11.198784,15.06399957,0.0001205,53.0545,129.2984,85.6575,274.4551,0,U,47388,999,28076,0.00012681,1.608e-05,0.0,False,False,False,False,False,False,False,False,starlink,
STARLINK-2110,2021-005AS,Sattelite,2026-02-22T12:51:35.324928,15.2935123,0.0001442,53.157,107.1267,89.2335,270.883,0,U,47389,999,28107,2.2845e-05,3.03e-06,0.0,False,False,False,False,False,False,False,False,starlink,
STARLINK-2111,2021-005AT,Sattelite,2026-02-22T22:03:44.018208,15.06402184,0.00013907,53.0549,127.9266,88.4702,271.6446,0,U,47390,999,28081,8.6493831e-05,1.007e-05,0.0,False,False,False,False,False,False,False,False,starlink,
STARLINK-2112,2021-005AU,Sattelite,2026-02-22T03:10:29.664192,15.06389717,0.0001541,53.055,101.4615,83.5102,276.6062,0,U,47391,999,28111,8.6309468e-05,1.004e-05,0.0,False,False,False,False,False,False,False,False,starlink,
STARLINK-2113,2021-005AV,Sattelite,2026-02-22T22:00:49.112640,15.54789895,0.0003851,53.0533,87.9159,46.7559,313.3772,0,U,47392,999,28137,0.00073793006,0.00049823,0.0,False,False,False,False,False,False,False,False,starlink,
STARLINK-2114,2021-005AW,Sattelite,2026-02-22T22:00:01.999584,15.54490234,0.00099365,53.0486,55.793,38.9323,25.7838,0,U,47393,999,595,0.0030435357,0.00209215,0.0,False,False,False,False,False,False,False,False,starlink,
STARLINK-2119,2021-005BA,Sattelite,2026-02-22T21:10:39.532800,15.06406727,0.00013093,53.0524,128.0925,87.9963,272.1176,0,U,47397,999,28081,0.00077169955,0.00011234,0.0,False,False,False,False,False,False,False,False,starlink,
STARLINK-2121,2021-005BC,Sattelite,2026-02-22T20:49:37.489728,15.3018155,0.00014761,53.1599,105.551,98.4296,261.6872,0,U,47399,999,28112,0.00057520034,0.00016705,0.0,False,False,False,False,False,False,False,False,starlink,
STARLINK-2122,2021-005BD,Sattelite,2026-02-22T19:04:10.208640,15.30172422,0.00013938,53.1614,82.694,87.4913,272.6247,0,U,47400,999,28144,-7.0386105e-05,-2.441e-05,0.0,False,False,False,False,False,False,False,False,starlink,
STARLINK-2123,2021-005BE,Sattelite,2026-02-22T06:33:33.089760,15.06399032,0.00013534,53.0541,100.8262,93.155,266.9594,0,U,47401,999,28114,8.2274043e-05,9.44e-06,0.0,False,False,False,False,False,False,False,False,starlink,
STARLINK-2128,2021-005BH,Sattelite,2026-02-22T22:27:34.393536,15.56476753,0.00030526,53.054,87.7163,59.1282,301.0029,0,U,47404,999,28138,0.00094245913,0.00068032,0.0,False,False,False,False,False,False,False,False,starlink,
STARLINK-2130,2021-005BJ,Sattelite,2026-02-22T22:35:35.146464,15.06397997,0.00011807,53.0518,127.8274,103.4525,256.6595,0,U,47405,999,28081,0.00012402718,1.566e-05,0.0,False,False,False,False,False,False,False,False,starlink,
STARLINK-2134,2021-005BL,Sattelite,2026-02-22T02:45:19.647936,15.06391284,0.00013909,53.054,101.5369,91.4571,268.6577,0,U,47407,999,28111,2.9707845e-05,1.61e-06,0.0,False,False,False,False,False,False,False,False,starlink,
STARLINK-2135,2021-005BM,Sattelite,2026-02-22T19:33:47.511936,15.06400396,0.00015079,53.0542,98.3955,92.1242,267.992,0,U,47408,999,28122,-1.0327162e-05,-4.35e-06,0.0,False,False,False,False,False,False,False,False,starlink,
