STARLINK-2097           
1 47377U 21005AE  26053.91189453  .00003444  00000+0  25005-3 0  9991
2 47377  53.0537 127.9583 0002023  81.2992 278.8226 15.06389599280815
STARLINK-2098           
1 47378U 21005AF  26053.25950332  .00001017  00000+0  46462-4 0  9996
2 47378  53.1605  85.8404 0001424  79.9267 280.1894 15.30188483281353
STARLINK-2099           
1 47379U 21005AG  26053.59544998  .00001522  00000+0  63497-4 0  9999
2 47379  53.1615  83.6517 0001505  89.3579 270.7594 15.30199106281410
STARLINK-2100           
1 47380U 21005AH  26053.80777985 -.00003507  00000+0 -21678-3 0  9990
2 47380  53.0545  98.4264 0001265  97.5179 262.5954 15.06377953281225
STARLINK-2101           
1 47381U 21005AJ  26053.82389959  .00000661  00000+0  63295-4 0  9991
2 47381  53.0552 103.4441 0001560 105.2522 254.8639 15.06397533281157
STARLINK-2102           
1 47382U 21005AK  26053.91668981  .00054012  00000+0  18239-2 0  9992
2 47382  53.1602  95.1702 0001373  77.1334 279.3526 15.30175244  5849
STARLINK-2103           
1 47383U 21005AL  26053.78644806  .00000460  00000+0  27061-4 0  9991
2 47383  53.1577  83.6348 0001170 101.1663 258.9470 15.31031132281437
STARLINK-2104           
1 47384U 21005AM  26053.85202063  .00000483  00000+0  51300-4 0  9993
2 47384  53.0542  98.4692 0001477  93.2759 266.8399 15.06401016281221
STARLINK-2105           
1 47385U 21005AN  26053.84830449  .00000752  00000+0  69397-4 0  9992
2 47385  53.0546  98.2462 0001501  81.8715 278.2444 15.06399133281226
STARLINK-2106           
1 47386U 21005AP  26053.61240913  .00000106  00000+0  26009-4 0  9995
2 47386  53.0557  99.3035 0001264  93.3263 266.7871 15.06392075281199
STARLINK-2109           
1 47388U 21005AR  26053.61332406  .00001608  00000+0  12681-3 0  9994
2 47388  53.0545 129.2984 0001205  85.6575 274.4551 15.06399957280768
STARLINK-2110           
1 47389U 21005AS  26053.53582552  .00000303  00000+0  22845-4 0  9990
2 47389  53.1570 107.1267 0001442  89.2335 270.8830 15.29351230281076
STARLINK-2111           
1 47390U 21005AT  26053.91925947  .00001007  00000+0  86494-4 0  9995
2 47390  53.0549 127.9266 0001390  88.4702 271.6446 15.06402184280816
STARLINK-2112           
1 47391U 21005AU  26053.13228778  .00001004  00000+0  86309-4 0  9990
2 47391  53.0550 101.4615 0001541  83.5102 276.6062 15.06389717281111
STARLINK-2113           
1 47392U 21005AV  26053.91723510  .00049823  00000+0  73793-3 0  9994
2 47392  53.0533  87.9159 0003851  46.7559 313.3772 15.54789895281376
STARLINK-2114           
1 47393U 21005AW  26053.91668981  .00209215  00000+0  30435-2 0  9993
2 47393  53.0486  55.7930 0009936  38.9323  25.7838 15.54490234  5957
STARLINK-2119           
1 47397U 21005BA  26053.88240200  .00011234  00000+0  77170-3 0  9993
2 47397  53.0524 128.0925 0001309  87.9963 272.1176 15.06406727280816
STARLINK-2121           
1 47399U 21005BC  26053.86779502  .00016705  00000+0  57520-3 0  9990
2 47399  53.1599 105.5510 0001476  98.4296 261.6872 15.30181550281124
STARLINK-2122           
1 47400U 21005BD  26053.79456260 -.00002441  00000+0 -70386-4 0  9998
2 47400  53.1614  82.6940 0001393  87.4913 272.6247 15.30172422281440
STARLINK-2123           
1 47401U 21005BE  26053.27329965  .00000944  00000+0  82274-4 0  9996
2 47401  53.0541 100.8262 0001353  93.1550 266.9594 15.06399032281145
STARLINK-2128           
1 47404U 21005BH  26053.93581474  .00068032  00000+0  94246-3 0  9990
2 47404  53.0540  87.7163 0003052  59.1282 301.0029 15.56476753281383
STARLINK-2130           
1 47405U 21005BJ  26053.94137901  .00001566  00000+0  12403-3 0  9998
2 47405  53.0518 127.8274 0001180 103.4525 256.6595 15.06397997280818
STARLINK-2134           
1 47407U 21005BL  26053.11481074  .00000161  00000+0  29708-4 0  9999
2 47407  53.0540 101.5369 0001390  91.4571 268.6577 15.06391284281119
STARLINK-2135           
1 47408U 21005BM  26053.81513324 -.00000435  00000+0 -10327-4 0  9994
2 47408  53.0542  98.3955 0001507  92.1242 267.9920 15.06400396281220
